{
  "norad_id": 57522,
  "name": "STARLINK-30256",
  "history": [
    {
      "epoch": "2026-03-28T19:44:49.970112",
      "apogee_km": 483.92051896733574,
      "perigee_km": 482.2292302402466,
      "latitude_deg": -29.69373692036761,
      "longitude_deg": 11.18885567993857,
      "semi_major_axis_km": 6861.211874603791,
      "eccentricity": 0.00012325,
      "inclination_deg": 43.0006,
      "raan_deg": 253.8568,
      "arg_perigee_deg": 274.5224,
      "mean_anomaly_deg": 85.5487,
      "mean_motion_rev_day": 15.27571391
    }
  ]
}